INTELSAT 26 (IS-26)     
1 24732U 97007A   19051.71340082  .00000001  00000-0  00000+0 0  9992
2 24732   8.3607  45.9121 0003888 306.5125 116.9142  1.00271182 80470
GALAXY 25 (G-25)        
1 24812U 97026A   19052.21441552 -.00000185  00000-0  00000+0 0  9996
2 24812   0.8137  94.2099 0003392 241.4003 159.3056  1.00271883 79557
INTELSAT 5 (IS-5)       
1 24916U 97046A   19051.69607068  .00000071  00000-0  00000+0 0  9993
2 24916   4.7438  68.1005 0002786 267.9524 287.8394  1.00272228 78806
INTELSAT 805 (IS-805)   
1 25371U 98037A   19051.82923697 -.00000053  00000-0  00000-0 0  9996
2 25371   1.3475  91.4764 0003583 248.6998 277.8718  1.00271967 75742
GALAXY 11 (G-11)        
1 26038U 99071A   19052.16335493  .00000115  00000-0  00000+0 0  9992
2 26038   0.1035 111.5910 0001205 205.7426 297.1448  1.00271925 70270
INTELSAT 9 (IS-9)       
1 26451U 00043A   19051.72193646 -.00000028  00000-0  00000+0 0  9999
2 26451   4.7314  68.3061 0003401 265.7578 142.3049  1.00271762 68048
INTELSAT 12 (IS-12)     
1 26590U 00068A   19052.16597201  .00000026  00000-0  00000+0 0  9991
2 26590   1.8177  88.9607 0003549 222.8229 316.4460  1.00374146 66994
INTELSAT 1R (IS-1R)     
1 26608U 00072A   19051.89859388 -.00000160  00000-0  00000-0 0  9993
2 26608   1.6044  89.6210 0000464 128.9463  52.5181  1.00271755 14513
INTELSAT 10 (IS-10)     
1 26766U 01019A   19051.80498537  .00000103  00000-0  00000+0 0  9991
2 26766   2.8222  82.0382 0002435 220.6488 185.0133  1.00273434 65121
INTELSAT 901 (IS-901)   
1 26824U 01024A   19051.86141181 -.00000236  00000-0  00000-0 0  9997
2 26824   0.7940  94.0100 0002938 248.2167  88.8364  1.00271414 64872
INTELSAT 902 (IS-902)   
1 26900U 01039A   19051.92410758  .00000011  00000-0  00000-0 0  9994
2 26900   0.0060 138.3745 0002882 195.8601 210.9641  1.00271879 63913
DIRECTV 4S              
1 26985U 01052A   19051.56004248 -.00000135  00000-0  00000-0 0  9993
2 26985   0.0112 109.7659 0002851 227.4098 273.4142  1.00271218 24507
INTELSAT 904 (IS-904)   
1 27380U 02007A   19052.16344216  .00000114  00000-0  00000+0 0  9998
2 27380   0.3429  99.3929 0002743 291.1594 224.1425  1.00272000 62288
INTELSAT 903 (IS-903)   
1 27403U 02016A   19051.86097563 -.00000246  00000-0  00000-0 0  9998
2 27403   1.1790  92.5585 0001752 280.4566  55.8952  1.00271313 18861
DIRECTV 5 (TEMPO 1)     
1 27426U 02023A   19052.20369194 -.00000078  00000-0  00000+0 0  9994
2 27426   0.0452 279.1270 0003395  60.9219 133.9557  1.00272089 61514
INTELSAT 905 (IS-905)   
1 27438U 02027A   19052.17896837 -.00000207  00000-0  00000+0 0  9990
2 27438   0.1634 103.2914 0002799 228.7608 218.6563  1.00271227 61167
GALAXY 3C (G-3C)        
1 27445U 02030A   19051.92014115 -.00000173  00000-0  00000+0 0  9997
2 27445   0.0063 157.5673 0002184 175.9748  53.1723  1.00272983 61159
INTELSAT 906 (IS-906)   
1 27513U 02041A   19052.16719331 -.00000007  00000-0  00000+0 0  9990
2 27513   0.0304 236.4402 0002266 105.8743 292.7877  1.00271436 60161
INTELSAT 907 (IS-907)   
1 27683U 03007A   19051.86176074 -.00000225  00000-0  00000-0 0  9991
2 27683   0.0262 204.9720 0002964 131.2851  96.9423  1.00270541 58628
GALAXY 12 (G-12)        
1 27715U 03013B   19051.62634181  .00000037  00000-0  00000-0 0  9996
2 27715   0.3789  96.6721 0002905 254.4753 255.5624  1.00270927 25338
GALAXY 23 (G-23)        
1 27854U 03034A   19051.62791205 -.00000009  00000-0  00000+0 0  9993
2 27854   0.0124 132.1808 0002916 206.8259 276.2852  1.00272091 61739
GALAXY 13 (HORIZONS 1)  
1 27954U 03044A   19051.62669074  .00000027  00000-0  00000-0 0  9993
2 27954   0.0153 119.5574 0000677  73.2216  56.0478  1.00270201 19778
DIRECTV 7S              
1 28238U 04016A   19052.17004897 -.00000021  00000-0  00000+0 0  9990
2 28238   0.0260 118.4056 0003136 227.1512 107.3872  1.00270818 54252
INTELSAT 10-02          
1 28358U 04022A   19052.15419515 -.00000034  00000-0  00000+0 0  9999
2 28358   0.0423 285.6170 0002610  68.4488 211.2074  1.00272373 53823
XM-3 (RHYTHM)           
1 28626U 05008A   19051.92206035 -.00000227  00000-0  00000+0 0  9991
2 28626   0.0135 126.0373 0000133 275.5589 355.7733  1.00265264 51268
SPACEWAY 1              
1 28644U 05015A   19052.11939008  .00000082  00000-0  00000+0 0  9992
2 28644   0.0388 105.3185 0000099  50.6703 258.7979  1.00270057 50719
DIRECTV 8               
1 28659U 05019A   19052.20124962 -.00000138  00000-0  00000+0 0  9990
2 28659   0.0213 142.2434 0003221 201.2612 139.0180  1.00269370 50386
GALAXY 28 (G-28)        
1 28702U 05022A   19051.84956294 -.00000207  00000-0  00000-0 0  9991
2 28702   0.0222 104.2573 0001391 296.7965 326.2308  1.00270093 25303
GALAXY 14 (G-14)        
1 28790U 05030A   19052.15986024  .00000015  00000-0  00000+0 0  9991
2 28790   0.0480 298.7192 0002696  35.4307 109.1540  1.00270570 49503
GALAXY 15 (G-15)        
1 28884U 05041A   19051.62546944  .00000057  00000-0  00000-0 0  9998
2 28884   0.0480 274.4190 0001687  55.2038 272.7770  1.00271258 48949
SPACEWAY 2              
1 28903U 05046B   19051.45619057 -.00000148  00000-0  00000+0 0  9993
2 28903   0.0183 119.3735 0000315 253.6283 202.2559  1.00271100 48686
GALAXY 16 (G-16)        
1 29236U 06023A   19051.45619057 -.00000148  00000-0  00000+0 0  9999
2 29236   0.0083 148.1654 0002909 186.3776 240.7424  1.00271466 46451
DIRECTV 9S              
1 29494U 06043A   19051.63183766 -.00000135  00000-0  00000+0 0  9996
2 29494   0.0224 134.5212 0003341 202.9821 299.0989  1.00270797 45290
XM-4 (BLUES)            
1 29520U 06049A   19051.62904611 -.00000044  00000-0  00000-0 0  9991
2 29520   0.0050 278.2371 0000340  97.3961 245.7548  1.00271907 24678
GALAXY 17 (G-17)        
1 31307U 07016B   19052.21659542 -.00000197  00000-0  00000+0 0  9996
2 31307   0.0114 121.1216 0003471 216.4526 160.2172  1.00272529 43270
DIRECTV 10              
1 31862U 07032A   19051.55969353 -.00000124  00000-0  00000-0 0  9991
2 31862   0.0501 290.5725 0000215  60.1838 258.0437  1.00271392 18814
SPACEWAY 3              
1 32018U 07036A   19052.21001993 -.00000174  00000-0  00000+0 0  9994
2 32018   0.0028 169.4423 0000272 181.5032 140.5152  1.00271228 42328
INTELSAT 11 (IS-11)     
1 32253U 07044B   19052.09493959 -.00000291  00000-0  00000+0 0  9997
2 32253   0.0423 292.1910 0001684  60.2446 149.4405  1.00269481 41723
HORIZONS 2              
1 32388U 07063B   19051.88869113 -.00000204  00000-0  00000-0 0  9997
2 32388   0.0183 110.0310 0003192 228.6778 216.5542  1.00270797 41057
DIRECTV 11              
1 32729U 08013A   19052.20332014 -.00000148  00000-0  00000+0 0  9990
2 32729   0.0038 264.0771 0000346 110.0928 110.6410  1.00271384 40134
GALAXY 18 (G-18)        
1 32951U 08024A   19051.62747586  .00000003  00000-0  00000+0 0  9997
2 32951   0.0173 192.1461 0003026 148.0277 272.9514  1.00274439 39278
INTELSAT 25 (IS-25)     
1 33153U 08034A   19052.17896837 -.00000247  00000-0  00000+0 0  9999
2 33153   0.0233 215.9264 0002680  94.2802 233.4907  1.00268715 38835
GALAXY 19 (G-19)        
1 33376U 08045A   19051.56091483 -.00000161  00000-0  00000+0 0  9999
2 33376   0.0451 277.7183 0003300  52.9664 284.4154  1.00271916 38025
SIRIUS FM-5             
1 35493U 09034A   19051.84991189 -.00000222  00000-0  00000-0 0  9992
2 35493   0.0088 164.8770 0001061 205.0577   0.3318  1.00269782 19908
INTELSAT 14 (IS-14)     
1 36097U 09064A   19051.50466247 -.00000295  00000-0  00000-0 0  9991
2 36097   0.0175 119.0614 0002669 218.6365 309.1076  1.00272112 33891
INTELSAT 15 (IS-15)     
1 36106U 09067A   19051.91299647 -.00000207  00000-0  00000+0 0  9990
2 36106   0.0053 112.2024 0002359 217.7999 234.3317  1.00271236 33798
DIRECTV 12              
1 36131U 09075A   19051.63157595 -.00000124  00000-0  00000-0 0  9990
2 36131   0.0492 277.9751 0000405  81.7606 275.0542  1.00271038 19788
INTELSAT 16 (IS-16)     
1 36397U 10006A   19051.85209278 -.00000266  00000-0  00000-0 0  9997
2 36397   0.0155 113.9097 0002285 222.6720  44.4189  1.00270235 33050
XM-5                    
1 37185U 10053A   19051.52688228 -.00000226  00000-0  00000+0 0  9990
2 37185   0.0158 107.4626 0000355 177.1345 329.9880  1.00269836 30633
INTELSAT 17 (IS-17)     
1 37238U 10065B   19052.16762949 -.00000024  00000-0  00000+0 0  9992
2 37238   0.0299 234.5719 0002565 110.3380 292.2064  1.00272062 30110
INTELSAT NEW DAWN       
1 37392U 11016A   19052.16099956  .00000133  00000-0  00000+0 0  9991
2 37392   0.0398 248.3485 0000326  97.2500 255.9284  1.00271672 28713
INTELSAT 18 (IS-18)     
1 37834U 11056A   19051.83141786  .00000030  00000-0  00000-0 0  9995
2 37834   0.0216 143.5600 0002490 218.2501 267.9440  1.00270536 27138
INTELSAT 22 (IS-22)     
1 38098U 12011A   19051.89541036 -.00000081  00000-0  00000+0 0  9994
2 38098   0.0106 114.3772 0002733 220.4778 210.0852  1.00271830 25240
INTELSAT 19 (IS-19)     
1 38356U 12030A   19051.90016413 -.00000079  00000-0  00000-0 0  9998
2 38356   0.0168  67.3722 0003292 278.5035 294.6844  1.00271869 23652
INTELSAT 20 (IS-20)     
1 38740U 12043A   19052.16806567 -.00000047  00000-0  00000+0 0  9999
2 38740   0.0210 128.8019 0002821  55.9410  95.0327  1.00271523 24028
INTELSAT 21 (IS-21)     
1 38749U 12045A   19051.85574147 -.00000307  00000-0  00000-0 0  9991
2 38749   0.0210 147.6410 0002214 194.9316  57.9784  1.00266999 23727
INTELSAT 23 (IS-23)     
1 38867U 12057A   19052.15049568 -.00000307  00000-0  00000+0 0  9992
2 38867   0.0066 188.6816 0001444 131.0568 192.2047  1.00271490 23308
SIRIUS FM-6             
1 39360U 13058A   19051.62887163 -.00000038  00000-0  00000-0 0  9997
2 39360   0.0179  95.3963 0001100  73.9402  91.1395  1.00270441 19357
INTELSAT 30 (IS-30)     
1 40271U 14062A   19052.06373148 -.00000173  00000-0  00000+0 0  9997
2 40271   0.0190 114.0869 0001543 348.1304 336.3241  1.00270876 15965
INTELSAT 34 (IS-34)     
1 40874U 15039A   19051.85617765 -.00000307  00000-0  00000-0 0  9993
2 40874   0.0071  79.9673 0000359 161.1064 162.0932  1.00268533 12868
INTELSAT 29E (IS-29E)   
1 41308U 16004A   19051.85731171 -.00000304  00000-0  00000-0 0  9994
2 41308   0.0466 268.5984 0001844  58.2200  82.2731  1.00272915 11372
INTELSAT 31 (IS-31)     
1 41581U 16035A   19051.56126378 -.00000172  00000-0  00000-0 0  9999
2 41581   0.0194 201.1904 0002054  14.1114  41.8607  1.00269745  9835
INTELSAT 36 (IS-36)     
1 41747U 16053A   19052.16806567 -.00000046  00000-0  00000+0 0  9994
2 41747   0.0172  82.4509 0001018 280.0193 277.2909  1.00270275  9151
INTELSAT 33E (IS-33E)   
1 41748U 16053B   19051.92410758  .00000026  00000-0  00000-0 0  9999
2 41748   0.0137  46.9375 0002050 291.2150 205.0435  1.00273596  9458
INTELSAT 32E (IS-32E)   
1 41945U 17007B   19051.85862025 -.00000291  00000-0  00000-0 0  9993
2 41945   0.0136 115.7973 0000272 190.2850 110.2870  1.00268674  7420
INTELSAT 35E (IS-35E)   
1 42818U 17041A   19051.86036498 -.00000260  00000-0  00000-0 0  9995
2 42818   0.0423 246.9804 0001911  92.5810  86.1444  1.00271171  6063
INTELSAT 37E (IS-37E)   
1 42950U 17059A   19051.64841249 -.00000163  00000-0  00000-0 0  9997
2 42950   0.0184 141.9031 0002275 193.6883  30.0652  1.00270583  5241
AZERSPACE 2 (IS-38)     
1 43632U 18074A   19051.87624191  .00000114  00000-0  00000-0 0  9998
2 43632   0.0129 132.2465 0001965 293.6568  85.0268  1.00277736  1716
HORIZONS 3E             
1 43633U 18074B   19051.90094925 -.00000053  00000-0  00000+0 0  9991
2 43633   0.0057 280.3248 0000421  53.4147 310.0936  1.00271486  1542
